NOAA 1 [-]              
1 04793U 70106A   19002.86799872 -.00000035  00000-0  63072-4 0  9996
2 04793 101.7283  73.4601 0031679 248.0585 243.7376 12.53988155199453
NOAA 2 (ITOS-D) [-]     
1 06235U 72082A   19002.92351913 -.00000043  00000-0  15827-4 0  9995
2 06235 101.7706 330.7429 0004117 340.2378  86.3208 12.53110750113959
NOAA 3 [-]              
1 06920U 73086A   19002.92121552 -.00000070  00000-0 -19077-3 0  9996
2 06920 102.0270 333.8307 0006483 101.7231 320.2848 12.40345963 44387
NOAA 4 [-]              
1 07529U 74089A   19002.91549633 -.00000029  00000-0  97716-4 0  9999
2 07529 101.7282 332.5059 0009073   9.2196  53.5461 12.53124485 18524
NOAA 5 [-]              
1 09057U 76077A   19002.88050432 -.00000044  00000-0 -35918-5 0  9991
2 09057 101.9081 338.2323 0009951 317.9153  95.9787 12.37756811917643
TIROS N [P]             
1 11060U 78096A   19003.17277378 -.00000001  00000-0  20931-4 0  9994
2 11060  98.8164  61.8834 0011090 160.9859 199.1732 14.18220213293061
NOAA 6 [P]              
1 11416U 79057A   19002.94316190  .00000040  00000-0  30530-4 0  9995
2 11416  98.6263 357.4741 0010832  25.8612 334.3112 14.33511476 60770
NOAA 7 [-]              
1 12553U 81059A   19002.95933084 -.00000018  00000-0  14324-4 0  9990
2 12553  99.0944   6.4501 0012442  95.1235 316.8841 14.17252018939101
NOAA 8 [-]              
1 13923U 83022A   19002.92687620 -.00000000  00000-0  17182-4 0  9999
2 13923  98.5656 351.0838 0014385 307.8178  52.1701 14.28661933862276
NOAA 9 [P]              
1 15427U 84123A   19002.89930130  .00000008  00000-0  26801-4 0  9991
2 15427  98.8719 312.3058 0015312 146.6209 258.1951 14.16055967758066
NOAA 10 [-]             
1 16969U 86073A   19002.90832959 -.00000004  00000-0  15453-4 0  9999
2 16969  98.4716   4.3182 0013124  58.8471   3.4329 14.28060332680778
NOAA 11 [-]             
1 19531U 88089A   19002.94513861 -.00000006  00000-0  18184-4 0  9994
2 19531  98.4717  45.7584 0010659 209.8488 150.2080 14.15235432562380
NOAA 12 [-]             
1 21263U 91032A   19002.90860472  .00000001  00000-0  18320-4 0  9996
2 21263  98.5257  22.8608 0014751  72.6932 287.5860 14.25883455436942
NOAA 13 [-]             
1 22739U 93050A   19002.94805247  .00000012  00000-0  28646-4 0  9994
2 22739  98.4889  34.5324 0009522   5.4057 354.7217 14.12720591308935
NOAA 14 [-]             
1 23455U 94089A   19002.87696609 -.00000035  00000-0  36813-5 0  9997
2 23455  98.6220  70.2221 0009133 349.1093  10.9882 14.14124519238404
NOAA 15 [B]             
1 25338U 98030A   19002.90102151  .00000022  00000-0  28202-4 0  9994
2 25338  98.7591  24.3603 0010647  13.1119 347.0335 14.25889803 73221
NOAA 16 [-]             
1 26536U 00055A   19002.92111055 -.00000007  00000-0  19692-4 0  9997
2 26536  98.7965  77.9209 0011047 153.9560 206.2170 14.13220230239161
NOAA 17 [-]             
1 27453U 02032A   19002.86208966 -.00000021  00000-0  92201-5 0  9998
2 27453  98.5154 318.0160 0011621 354.3526   5.7521 14.25029096859171
NOAA 18 [B]             
1 28654U 05018A   19002.94961582  .00000057  00000-0  56062-4 0  9990
2 28654  99.1212  47.2190 0013399 287.2638  72.7067 14.12395515701884
NOAA 19 [+]             
1 33591U 09005A   19002.92365846  .00000026  00000-0  39384-4 0  9999
2 33591  99.1650 350.1441 0014709 124.0198 236.2372 14.12326761510102
SUOMI NPP [+]           
1 37849U 11061A   19002.87533851 -.00000004  00000-0  18847-4 0  9999
2 37849  98.7207 303.4550 0001122  56.0016 348.6326 14.19553328372218
NOAA 20 [+]             
1 43013U 17073A   19002.90145375 -.00000017  00000-0  12532-4 0  9991
2 43013  98.7463 303.4442 0001391  73.4526 286.6803 14.19536034 58249
